P/2015 K5 (PANSTARRS),e,39.9672,134.2506,106.1051,6.708725,0.0567210,0.55467648,55.6511,02/12.0/2018,2000,g 13.5,4.0
# From MPC106344
C/2015 LC2 (PANSTARRS),h,05/01.9431/2015,93.7099,223.5661,341.9147,1.000256,5.895600,2000,8.0,4.0
# From MPC 95734
C/2015 M1 (PANSTARRS),e,57.3118,100.2268,164.0321,403.4526,0.0001216,0.99481505,0.0000,05/15.8051/2015,2000,g 16.5,4.0
# From MPC107684
P/2015 M2 (PANSTARRS),e,3.9735,86.5835,224.8026,7.211053,0.0508986,0.18017824,45.5893,02/12.0/2018,2000,g  8.5,4.0
# From MPC102097
C/2015 M3 (PANSTARRS),e,65.9232,143.0788,123.7744,137.1091,0.0006139,0.97409184,0.0000,08/26.3699/2015,2000,g 12.0,4.0
# From MPC108593
C/2015 O1 (PANSTARRS),h,02/19.0460/2018,127.2110,299.8556,89.5980,1.000078,3.729546,2000,6.5,4.0
# From MPC 95734
C/2015 P3 (SWAN),e,58.1900,88.0438,132.9552,239.0975,0.0002666,0.99700473,0.0000,07/27.8115/2015,2000,g 15.5,4.0
# From MPC 99271
P/2015 P4 (PANSTARRS),e,8.7157,104.7455,280.7582,6.061489,0.0660443,0.58353248,49.8803,02/12.0/2018,2000,g 14.0,4.0
# From MPC102952
P/2015 PD229 (Cameron-ISON),e,2.0256,342.7330,352.2605,7.176032,0.0512717,0.32707248,46.8584,02/12.0/2018,2000,g 11.5,2.0
# From MPC 99819
P/2015 Q1 (Scotti),e,22.6314,203.2753,199.7315,3.452737,0.1536239,0.48510652,136.4035,02/12.0/2018,2000,g 14.0,4.0
# From MPC 96867
P/2015 Q2 (Pimentel),e,146.4518,228.3541,244.4654,7.362548,0.0493358,0.75213119,43.8019,02/12.0/2018,2000,g 15.5,4.0
# From MPC 98562
P/2015 R1 (PANSTARRS),e,22.6722,48.5239,300.4267,5.886937,0.0690033,0.63265182,66.4073,02/12.0/2018,2000,g 14.0,4.0
# From MPC 95734
P/2015 R2 (PANSTARRS),e,15.4597,168.6619,149.6716,4.492672,0.1035016,0.45151305,101.3323,02/12.0/2018,2000,g 14.5,4.0
# From MPC102097
C/2015 R3 (PANSTARRS),e,83.6370,36.4068,272.0118,10390,0.0000009,0.99952838,0.0000,02/12.5044/2014,2000,g 10.0,4.0
# From MPC108593
C/2015 T2 (PANSTARRS),e,124.5499,51.0631,30.7405,47719,0.0000001,0.99985467,0.0000,05/20.1260/2017,2000,g  8.0,4.0
# From MPC 96280
P/2015 T3 (PANSTARRS),e,13.0937,120.5019,178.6330,4.326181,0.1095335,0.50818108,359.9227,12/21.0/2014,2000,g 14.0,4.0
# From MPC102953
C/2015 T4 (PANSTARRS),e,87.9460,251.7921,270.1333,85.12226,0.0012550,0.97302052,0.0000,06/18.8100/2016,2000,g 11.0,4.0
# From MPC102097
C/2015 T5 (Sheppard-Tholen),e,11.0462,311.1349,61.7812,27.93427,0.0066757,0.66578095,5.0201,02/12.0/2018,2000,g  7.5,4.0
# From MPC102953
P/2015 TO19 (Lemmon-PANSTARRS),e,6.4997,321.6418,89.3011,4.559870,0.1012221,0.35818589,71.5825,02/12.0/2018,2000,g 14.0,4.0
# From MPC105237
P/2015 TP200 (LINEAR),e,8.7722,6.9753,82.7672,7.293915,0.0500338,0.53577140,23.6010,02/12.0/2018,2000,g 11.0,4.0
# From MPC101097
C/2015 TQ209 (LINEAR),e,11.3958,224.0807,281.4597,1016,0.0000304,0.99861061,0.0000,08/27.4925/2016,2000,g 10.5,4.0
# From MPC108593
C/2015 V1 (PANSTARRS),h,12/17.7207/2017,139.2286,197.1941,179.6367,1.000484,4.266789,2000,6.5,4.0
# From MPC108593
C/2015 V2 (Johnson),h,06/12.3322/2017,49.8770,69.8482,164.8954,1.001603,1.637058,2000,5.0,4.0
# From MPC102953
C/2015 V3 (PANSTARRS),e,86.2292,2.3303,0.7500,687.6301,0.0000547,0.99384340,0.0000,11/24.3817/2015,2000,g  9.0,4.0
# From MPC104791
C/2015 V4 (PANSTARRS),e,60.7412,179.8999,307.0520,18.58260,0.0123039,0.70608070,6.5408,02/12.0/2018,2000,g  8.5,4.0
# From MPC107684
C/2015 VL62 (Lemmon-Yeung-PANSTARRS),h,08/28.6080/2017,165.6137,94.5514,128.3686,1.001757,2.720363,2000,8.0,4.0
# From MPC102098
C/2015 WZ (PANSTARRS),e,134.5306,40.1150,66.6549,157.6068,0.0004981,0.99127475,0.0000,04/15.0429/2016,2000,g 15.0,4.0
# From MPC101098
C/2015 W1 (Gibbs),h,05/17.1502/2016,87.3045,114.3236,48.1267,1.001062,2.232394,2000,13.0,4.0
# From MPC101098
P/2015 W2 (Catalina),e,11.6052,294.2239,117.7220,7.316118,0.0498062,0.63344555,43.0982,02/12.0/2018,2000,g 13.0,4.0
# From MPC101098
P/2015 X1 (PANSTARRS),e,12.1579,161.7918,219.0670,3.629181,0.1425578,0.41952571,122.0021,02/12.0/2018,2000,g 16.0,4.0
# From MPC108593
C/2015 XY1 (Lemmon),h,04/29.9906/2018,148.8458,281.6156,196.3556,1.003969,7.928000,2000,5.5,4.0
# From MPC 10028
C/2015 X2 (Catalina),e,72.4513,101.0981,42.0333,15.71406,0.0158224,0.87872648,12.4116,02/12.0/2018,2000,g 16.0,4.0
# From MPC 97498
P/2015 X3 (PANSTARRS),e,24.3815,77.3335,306.8090,5.017758,0.0876879,0.43760983,80.6474,02/12.0/2018,2000,g 15.0,4.0
# From MPC104791
C/2015 X4 (Elenin),e,29.5010,262.6172,176.3937,18.08393,0.0128164,0.81213700,10.6587,02/12.0/2018,2000,g 10.0,4.0
# From MPC108593
C/2015 X5 (PANSTARRS),h,12/31.0143/2017,124.2924,122.3156,27.7517,1.003387,6.801744,2000,7.5,4.0
# From MPC101098
P/2015 X6 (PANSTARRS),e,4.5593,106.9877,329.6094,2.756665,0.2153417,0.17051030,149.2468,02/12.0/2018,2000,g 16.0,4.0
# From MPC105542
C/2015 X7 (ATLAS),h,07/30.2977/2016,57.5612,139.8721,348.5254,1.001616,3.685682,2000,9.0,4.0
# From MPC107048
C/2015 X8 (NEOWISE),e,155.2738,191.1170,20.4568,19.73403,0.0112429,0.93964892,9.4744,02/12.0/2018,2000,g 16.0,4.0
# From MPC104792
C/2015 Y1 (LINEAR),e,71.2080,135.7834,24.7196,278.1020,0.0002125,0.99095679,0.0000,05/15.1139/2016,2000,g 12.0,4.0
# From MPC105543
C/2015 YG1 (NEOWISE),e,57.2376,350.4541,102.6204,17.09601,0.0139432,0.87907214,12.0952,02/12.0/2018,2000,g 13.0,4.0
# From MPC108593
C/2016 A1 (PANSTARRS),h,11/23.3816/2017,121.1884,128.1754,10.3216,1.002107,5.327807,2000,6.0,4.0
# From MPC 10028
P/2016 A2 (Christensen),e,26.3963,291.7164,141.5319,4.742001,0.0954469,0.27387521,91.7135,02/12.0/2018,2000,g 11.5,4.0
# From MPC105237
P/2016 A3 (PANSTARRS),e,8.5867,187.7924,338.6912,7.770571,0.0455014,0.38346965,13.7524,02/12.0/2018,2000,g 10.0,4.0
# From MPC 99272
C/2016 A5 (PANSTARRS),e,40.2303,136.1007,321.6821,904.3237,0.0000362,0.99673999,0.0000,06/27.7340/2015,2000,g 13.5,4.0
# From MPC 99820
C/2016 A6 (PANSTARRS),e,120.9287,300.2905,141.1171,209.8066,0.0003243,0.98849974,0.0000,11/05.8569/2015,2000,g 15.0,4.0
# From MPC102098
P/2016 A7 (PANSTARRS),e,16.6376,221.4565,352.5485,5.025190,0.0874934,0.56653096,62.7357,02/12.0/2018,2000,g 16.0,4.0
# From MPC106345
C/2016 A8 (LINEAR),e,148.2296,111.2857,130.3300,34.86830,0.0047869,0.94601816,2.5391,02/12.0/2018,2000,g 12.0,4.0
# From MPC107048
C/2016 B1 (NEOWISE),e,50.4758,231.9524,8.5784,416.1836,0.0001161,0.99229484,0.0000,12/04.7631/2016,2000,g  9.5,4.0
# From MPC102954
P/2016 BA14 (PANSTARRS),e,18.9155,180.5356,351.9257,3.022563,0.1875604,0.66593778,131.0240,02/12.0/2018,2000,g 21.0,4.0
# From MPC105237
C/2016 C1 (PANSTARRS),h,02/19.7871/2016,56.1786,181.7802,328.7748,1.004714,8.464429,2000,5.5,4.0
# From MPC101098
C/2016 C2 (NEOWISE),e,38.1544,24.4044,214.4457,64.88714,0.0018857,0.97594823,0.0000,04/19.6856/2016,2000,g 16.0,4.0
# From MPC105237
C/2016 E1 (PANSTARRS),h,06/02.1817/2017,131.8920,233.0366,47.3549,1.003077,8.177238,2000,6.5,4.0
# From MPC 99821
C/2016 E2 (Kowalski),e,135.9446,186.6673,321.7623,135.2382,0.0006267,0.99204874,0.0000,02/06.3624/2016,2000,g 20.0,4.0
# From MPC102098
P/2016 G1 (PANSTARRS),e,10.9680,204.0728,111.2920,2.583579,0.2373402,0.21029408,90.5988,02/12.0/2018,2000,g 14.0,4.0
# From MPEC 2017-A77
P/2016 J1-A (PANSTARRS),e,14.3303,199.8560,46.6741,3.173470,0.1743422,0.22836028,104.1634,02/12.0/2018,2000,g 16.5,4.0
# From MPEC 2017-A77
P/2016 J1-B (PANSTARRS),e,14.3326,199.8593,46.5945,3.173174,0.1743666,0.22824296,104.2357,02/12.0/2018,2000,g 17.0,4.0
# From MPC101099
C/2016 J2 (Denneau),e,130.3453,186.2118,318.4853,555.8496,0.0000752,0.99726689,0.0000,04/11.8406/2016,2000,g 17.0,4.0
# From MPC102099
C/2016 KA (Catalina),e,104.6349,317.5434,63.1336,3259,0.0000053,0.99834227,0.0000,02/01.5177/2016,2000,g  8.5,4.0
# From MPC104792
C/2016 K1 (LINEAR),e,90.8489,325.6906,18.2425,11961,0.0000008,0.99980841,0.0000,07/13.2905/2016,2000,g 13.0,4.0
# From MPC108593
C/2016 M1 (PANSTARRS),e,90.9943,92.2034,209.8259,2426,0.0000083,0.99908871,0.0000,08/10.1741/2018,2000,g  5.0,4.0
# From MPC108593
C/2016 N4 (MASTER),e,72.5566,354.0289,55.9547,3966,0.0000039,0.99919331,0.0000,09/16.5891/2017,2000,g  8.5,4.0
# From MPC108593
C/2016 N6 (PANSTARRS),e,105.8304,298.9775,162.8030,1993,0.0000111,0.99866059,0.0000,07/18.2048/2018,2000,g  7.0,4.0
# From MPC102099
P/2016 P1 (PANSTARRS),e,24.4489,319.6030,269.9283,3.195208,0.1725661,0.28961185,150.6311,02/12.0/2018,2000,g 15.0,4.0
# From MPC102099
C/2016 P4 (PANSTARRS),e,29.8942,320.7854,356.0242,348.5059,0.0001515,0.98310258,0.0000,10/16.7188/2016,2000,g 10.5,4.0
# From MPC108594
C/2016 Q2 (PANSTARRS),e,109.4152,322.3149,84.4212,6977,0.0000017,0.99898429,0.0000,05/10.6401/2021,2000,g  6.0,4.0
# From MPC102955
C/2016 Q4 (Kowalski),e,7.2566,271.3027,99.3928,16.81315,0.0142965,0.57854229,0.2343,02/12.0/2018,2000,g  7.0,4.0
# From MPC108594
C/2016 R2 (PANSTARRS),e,58.2227,80.5685,33.1934,725.2276,0.0000505,0.99641170,0.0000,05/09.5849/2018,2000,g  7.0,4.0
# From MPC102099
C/2016 R3 (Borisov),e,53.0454,78.6584,118.0856,198.7542,0.0003517,0.99774725,0.0000,10/10.9590/2016,2000,g 18.0,4.0
# From MPC102955
P/2016 R4 (Gibbs),e,10.8616,168.3370,174.0148,5.333966,0.0800071,0.47516092,45.7349,02/12.0/2018,2000,g 12.5,4.0
# From MPC105543
P/2016 S1 (PANSTARRS),e,94.7038,227.5358,273.6749,8.310504,0.0411399,0.70972165,13.6550,02/12.0/2018,2000,g 12.0,4.0
# From MPC105238
C/2016 T1 (Matheny),e,129.8401,56.2444,137.3165,125.3481,0.0007023,0.98166029,0.0000,02/01.5743/2017,2000,g 14.5,4.0
# From MPC107685
C/2016 T2 (Matheny),e,81.3012,339.1006,92.2898,100.8992,0.0009725,0.98108879,0.0000,12/29.0776/2016,2000,g 14.5,4.0
# From MPC108594
C/2016 T3 (PANSTARRS),e,22.6768,271.7491,194.6807,141.0380,0.0005884,0.98121412,0.0000,09/06.9867/2017,2000,g 10.5,4.0
# From MPC103847
C/2016 U1 (NEOWISE),h,01/14.0245/2017,46.4424,61.4152,162.7732,1.000309,0.319376,2000,17.0,4.0
# From MPC106345
C/2016 VZ18 (PANSTARRS),e,24.0477,98.9366,36.3736,190.2167,0.0003757,0.99521774,0.0000,03/07.3748/2017,2000,g 19.5,4.0
# From MPC106345
P/2016 WM48 (Lemmon),e,117.5496,59.8753,35.8616,8.190280,0.0420490,0.78653084,14.7271,02/12.0/2018,2000,g 15.0,4.0
# From MPC108594
